{
    "links": {
        "self": "http://www.neowsapp.com/rest/v1/neo/3152313?api_key=iIulBulltgU6a56xZRHN4H3l9WmuAYTsLGpBGhQ2"
    },
    "id": "3152313",
    "neo_reference_id": "3152313",
    "name": "(2003 GF21)",
    "designation": "2003 GF21",
    "nasa_jpl_url": "http://ssd.jpl.nasa.gov/sbdb.cgi?sstr=3152313",
    "absolute_magnitude_h": 22.2,
    "estimated_diameter": {
        "kilometers": {
            "estimated_diameter_min": 0.096506147,
            "estimated_diameter_max": 0.2157943048
        },
        "meters": {
            "estimated_diameter_min": 96.5061469579,
            "estimated_diameter_max": 215.7943048444
        },
        "miles": {
            "estimated_diameter_min": 0.059966121,
            "estimated_diameter_max": 0.134088323
        },
        "feet": {
            "estimated_diameter_min": 316.6212271853,
            "estimated_diameter_max": 707.9865871058
        }
    },
    "is_potentially_hazardous_asteroid": false,
    "close_approach_data": [
        {
            "close_approach_date": "2003-04-11",
            "close_approach_date_full": "2003-Apr-11 22:12",
            "epoch_date_close_approach": 1050099120000,
            "relative_velocity": {
                "kilometers_per_second": "15.4962242568",
                "kilometers_per_hour": "55786.4073245423",
                "miles_per_hour": "34663.5040400746"
            },
            "miss_distance": {
                "astronomical": "0.0356407609",
                "lunar": "13.8642559901",
                "kilometers": "5331781.915819283",
                "miles": "3313015.6559127854"
            },
            "orbiting_body": "Earth"
        }
    ],
    "orbital_data": {
        "orbit_id": "8",
        "orbit_determination_date": "2017-04-06 09:14:12",
        "first_observation_date": "2003-04-07",
        "last_observation_date": "2003-04-10",
        "data_arc_in_days": 3,
        "observations_used": 37,
        "orbit_uncertainty": "8",
        "minimum_orbit_intersection": ".0142764",
        "jupiter_tisserand_invariant": "3.892",
        "epoch_osculation": "2452737.5",
        "eccentricity": ".4882822107080542",
        "semi_major_axis": "1.765141358908906",
        "inclination": "21.82681770307006",
        "ascending_node_longitude": "20.11283605341509",
        "orbital_period": "856.5794741198331",
        "perihelion_distance": ".9032542339686463",
        "perihelion_argument": "221.5460576321896",
        "aphelion_distance": "2.627028483849166",
        "perihelion_time": "2452773.220626281019",
        "mean_anomaly": "344.9874695230347",
        "mean_motion": ".4202762392478681",
        "equinox": "J2000",
        "orbit_class": {
            "orbit_class_type": "APO",
            "orbit_class_description": "Near-Earth asteroid orbits which cross the Earth’s orbit similar to that of 1862 Apollo",
            "orbit_class_range": "a (semi-major axis) > 1.0 AU; q (perihelion) < 1.017 AU"
        }
    },
    "is_sentry_object": false
}